GLOBALSTAR M063         
1 26081U 00008A   25002.48337596 -.00000063  00000+0  28836-3 0  9998
2 26081  51.9922 187.9755 0004791  10.3264  27.0654 11.86168180137911
GLOBALSTAR M062         
1 26082U 00008B   25002.31853302 -.00000115  00000+0 -11683-3 0  9990
2 26082  51.9829 223.5497 0007901 112.3286  59.1494 12.43456653475980
GLOBALSTAR M060         
1 26083U 00008C   25002.48934921 -.00000003  00000+0  86991-3 0  9995
2 26083  51.9991 159.6114 0004306 134.9461 265.4229 12.17652818132189
GLOBALSTAR M064         
1 26084U 00008D   25002.21483152 -.00000102  00000+0 -26596-3 0  9998
2 26084  52.0045 289.4684 0002101  82.2367 277.8704 11.88527895147473
GLOBALSTAR M065         
1 31571U 07020A   25002.47437992  .00000013  00000+0  65333-3 0  9996
2 31571  51.9912  10.6406 0010077 299.5160 193.8735 12.61990815812481
GLOBALSTAR M069         
1 31573U 07020C   25002.38251788 -.00000037  00000+0  40174-3 0  9998
2 31573  51.9970 331.2079 0000476  80.3790  82.0641 12.53308394813529
GLOBALSTAR M072         
1 31574U 07020D   25002.28130701 -.00000099  00000+0 -17939-3 0  9991
2 31574  52.0086  73.6817 0001025  86.4594 317.2056 11.95103722811857
GLOBALSTAR M071         
1 31576U 07020F   25002.38803824 -.00000059  00000+0  29765-3 0  9992
2 31576  52.0083 335.8256 0001990  66.9230  56.9072 12.31891513474726
